OBJECT_NAME,OBJECT_ID,EPOCH,MEAN_MOTION,ECCENTRICITY,INCLINATION,RA_OF_ASC_NODE,ARG_OF_PERICENTER,MEAN_ANOMALY,EPHEMERIS_TYPE,CLASSIFICATION_TYPE,NORAD_CAT_ID,ELEMENT_SET_NO,REV_AT_EPOCH,BSTAR,MEAN_MOTION_DOT,MEAN_MOTION_DDOT
QB50P1,2014-033R,2026-07-18T07:39:18.658080,15.18693321,.0010487,98.0968,212.6585,115.5699,244.6619,0,U,40025,999,65775,.21985551E-3,.4488E-4,0
DTUSAT-2,2014-033W,2026-07-18T17:43:15.370176,15.15377493,.0009544,98.0881,199.4794,121.6142,238.6021,0,U,40030,999,65746,.19028E-3,.3519E-4,0
QB50P2,2014-033Y,2026-07-18T19:05:38.213952,15.15534284,.0009228,98.0769,198.6548,73.8940,286.3306,0,U,40032,999,65745,.19124E-3,.3553E-4,0
PERSEUS-M1,2014-033AF,2026-07-18T19:31:59.435040,14.95722381,.0011157,97.9655,144.4689,184.3661,175.7464,0,U,40039,999,65536,.54381E-4,.545E-5,0
POLYITAN-1,2014-033AJ,2026-07-18T00:58:49.731168,15.34281566,.00076502,98.0931,228.2449,55.8959,304.3007,0,U,40042,999,65832,.33244666E-3,.10956E-3,0
TIGRISAT,2014-033AK,2026-07-18T09:01:41.702304,14.85254459,.00483621,97.7869,348.6813,333.7651,26.1115,0,U,40043,999,65025,.85548866E-4,.693E-5,0
AISAT,2014-034B,2026-07-18T17:23:36.430080,15.09365174,.0010861,98.2354,114.4401,111.9612,248.2770,0,U,40054,999,65196,.32507E-3,.5125E-4,0
CANX-4,2014-034C,2026-07-18T05:23:23.696448,14.81314034,.00113675,98.3078,75.6714,271.9633,88.0277,0,U,40055,999,64912,.56502591E-4,.384E-5,0
CANX-5,2014-034D,2026-07-18T15:04:13.642752,14.81331659,.0011373,98.3080,76.1348,270.7559,89.2349,0,U,40056,999,63999,.53855E-4,.363E-5,0
VELOX-I,2014-034E,2026-07-18T20:28:27.262848,14.98134344,.0007189,98.2510,106.6551,154.8592,205.2980,0,U,40057,999,65134,.91906E-4,.1023E-4,0
GONETS-M 10,2014-036C,2026-07-18T20:46:02.656128,12.42946109,.0022892,82.5120,288.0003,74.8542,285.5067,0,U,40063,999,54618,-.42417E-3,-.49E-6,0
METEOR-M 2,2014-037A,2026-07-18T21:23:37.260672,14.21470054,.0004917,98.5139,174.5106,314.4771,45.6005,0,U,40069,999,62382,.64423E-5,-.28E-6,0
DX1,2014-037C,2026-07-18T20:33:13.866336,14.90069262,.0007417,98.3889,163.4851,158.0944,202.0591,0,U,40071,999,65082,.13995E-3,.1289E-4,0
UKUBE-1,2014-037F,2026-07-18T07:14:20.651424,15.13977056,.00031905,98.4246,205.8544,82.4039,277.7553,0,U,40074,999,65326,.25747607E-3,.4593E-4,0
GAOFEN-2,2014-049A,2026-07-18T20:45:56.113920,14.80928836,.0008465,98.0090,264.0398,124.5253,235.6759,0,U,40118,999,64392,.24041E-4,.133E-5,0
BRITE-PL2 (HEWELIUSZ),2014-049B,2026-07-18T18:30:26.392320,14.94691557,.0013984,97.9121,312.0206,10.5778,349.5733,0,U,40119,999,64616,.61509E-4,.608E-5,0
CBERS 4,2014-079A,2026-07-18T21:22:54.541920,14.35516449,.0000643,98.3510,255.7250,59.6839,300.4411,0,U,40336,999,60850,.57444E-5,-.26E-6,0
SMAP,2015-003A,2026-07-18T19:20:58.330752,14.63390735,.0001623,98.1285,206.4542,93.5805,266.5583,0,U,40376,999,61224,.39875E-4,.159E-5,0
GONETS-M 11,2015-020A,2026-07-18T21:14:57.690816,12.42878726,.0015312,82.4869,11.2350,294.6826,65.2659,0,U,40552,999,51267,.24898E-3,.44E-6,0
GONETS-M 12,2015-020B,2026-07-18T20:36:18.046080,12.42891972,.0014215,82.4901,12.3838,278.4842,81.4626,0,U,40553,999,51266,-.20498E-3,-.19E-6,0
GONETS-M 13,2015-020C,2026-07-18T19:58:52.440960,12.42871842,.0012816,82.4865,11.0059,262.3066,97.6558,0,U,40554,999,51263,-.49215E-4,.3E-7,0
DMC3-FM1,2015-032A,2026-07-18T20:36:21.377664,14.85772095,.000454,97.6419,63.7852,324.7247,35.3668,0,U,40715,999,59461,.97487E-4,.796E-5,0
DMC3-FM2,2015-032B,2026-07-18T21:07:55.269120,14.85776004,.0005204,97.6471,65.4016,329.5166,30.5746,0,U,40716,999,59461,.98025E-6,-.43E-6,0
DMC3-FM3,2015-032C,2026-07-18T21:41:50.673408,14.85763694,.0004463,97.6521,67.1973,330.9408,29.1559,0,U,40717,999,59462,.14559E-4,.75E-6,0
CARBONITE 1 (CBNT-1),2015-032D,2026-07-18T19:31:30.794304,14.83674251,.0014164,97.6524,16.5593,184.7200,175.3884,0,U,40718,999,59403,.93118E-4,.719E-5,0
DEORBITSAIL,2015-032E,2026-07-18T13:24:23.205024,15.04249579,.0013755,97.5853,55.7957,125.3687,234.8826,0,U,40719,999,59596,.3044E-3,.4182E-4,0
2015-049G,2015-049G,2026-07-18T20:02:55.013280,15.68972435,.0006594,97.4525,245.8703,106.6737,253.5248,0,U,40905,999,60140,.26459E-3,.30404E-3,0
LILACSAT-2,2015-049K,2026-07-18T20:46:44.470272,15.52440772,.0008572,97.4623,237.9281,130.7952,229.4046,0,U,40908,999,60066,.17436E-3,.10571E-3,0
COSMOS 2507 (RODNIK-S 13),2015-050A,2026-07-18T20:47:48.307776,12.42927384,.0008948,82.4899,59.9426,284.3149,75.6937,0,U,40920,999,49079,-.43886E-3,-.51E-6,0
COSMOS 2508 (RODNIK-S 14),2015-050B,2026-07-18T21:39:22.455936,12.42915343,.0013792,82.4850,58.4131,318.5215,41.4817,0,U,40921,999,49078,.67025E-4,.19E-6,0
