{"_default": { "16": {"norad_id": "40908", "name": "LILACSAT 2", "tle1": "1 40908U 15049K   26199.86579248  .00010571  00000-0  17436-3 0  9994", "tle2": "2 40908  97.4623 237.9281 0008572 130.7952 229.4046 15.52440772600667", "object_type": "PAYLOAD", "criticality_score": 9.0, "last_updated": "2026-07-19T02:53:59.007202+00:00", "maneuver_count": 0, "owner": "PRC"}, "17": {"norad_id": "40057", "name": "VELOX 1", "tle1": "1 40057U 14034E   26199.85309332  .00001023  00000-0  91906-4 0  9993", "tle2": "2 40057  98.2510 106.6551 0007189 154.8592 205.2980 14.98134344651342", "object_type": "PAYLOAD", "criticality_score": 9.0, "last_updated": "2026-07-19T02:53:59.007202+00:00", "maneuver_count": 0, "owner": "SING"}, "18": {"norad_id": "40055", "name": "CANX-4", "tle1": "1 40055U 14034C   26199.22457982  .00000384  00000-0  56503-4 0  9990", "tle2": "2 40055  98.3078  75.6714 0011368 271.9633  88.0277 14.81314034649124", "object_type": "PAYLOAD", "criticality_score": 9.0, "last_updated": "2026-07-19T02:53:59.007202+00:00", "maneuver_count": 0, "owner": "CA"}, "19": {"norad_id": "40054", "name": "AISAT", "tle1": "1 40054U 14034B   26199.72472720  .00005125  00000-0  32507-3 0  9996", "tle2": "2 40054  98.2354 114.4401 0010861 111.9612 248.2770 15.09365174651966", "object_type": "PAYLOAD", "criticality_score": 9.0, "last_updated": "2026-07-19T02:53:59.007202+00:00", "maneuver_count": 0, "owner": "GER"}, "20": {"norad_id": "40043", "name": "TIGRISAT", "tle1": "1 40043U 14033AK  26199.37617711  .00000693  00000-0  85549-4 0  9995", "tle2": "2 40043  97.7869 348.6813 0048362 333.7651  26.1115 14.85254459650254", "object_type": "PAYLOAD", "criticality_score": 9.0, "last_updated": "2026-07-19T02:53:59.007202+00:00", "maneuver_count": 0, "owner": "IRAQ"}, "51": {"norad_id": "40074", "name": "UKUBE-1", "tle1": "1 40074U 14037F   26199.30162791  .00004593  00000-0  25748-3 0  9996", "tle2": "2 40074  98.4246 205.8544 0003190  82.4039 277.7553 15.13977056653269", "object_type": "PAYLOAD", "criticality_score": 9.0, "last_updated": "2026-07-19T02:53:59.007202+00:00", "maneuver_count": 0, "owner": "UK"}, "52": {"norad_id": "40042", "name": "POLYITAN-1", "tle1": "1 40042U 14033AJ  26199.04085337  .00010956  00000-0  33245-3 0  9999", "tle2": "2 40042  98.0931 228.2449 0007650  55.8959 304.3007 15.34281566658324", "object_type": "PAYLOAD", "criticality_score": 9.0, "last_updated": "2026-07-19T02:53:59.007202+00:00", "maneuver_count": 0, "owner": "UKR"}, "53": {"norad_id": "40025", "name": "QB50P1", "tle1": "1 40025U 14033R   26199.31896595  .00004488  00000-0  21986-3 0  9998", "tle2": "2 40025  98.0968 212.6585 0010487 115.5699 244.6619 15.18693321657759", "object_type": "PAYLOAD", "criticality_score": 9.0, "last_updated": "2026-07-19T02:53:59.007202+00:00", "maneuver_count": 0, "owner": "BEL"}, "84": {"norad_id": "40032", "name": "QB50P2", "tle1": "1 40032U 14033Y   26199.79558118  .00003553  00000-0  19124-3 0  9997", "tle2": "2 40032  98.0769 198.6548 0009228  73.8940 286.3306 15.15534284657456", "object_type": "PAYLOAD", "criticality_score": 9.0, "last_updated": "2026-07-19T02:53:59.007202+00:00", "maneuver_count": 0, "owner": "BEL"}, "85": {"norad_id": "40030", "name": "DTUSAT 2", "tle1": "1 40030U 14033W   26199.73837234  .00003519  00000-0  19028-3 0  9993", "tle2": "2 40030  98.0881 199.4794 0009544 121.6142 238.6021 15.15377493657460", "object_type": "PAYLOAD", "criticality_score": 9.0, "last_updated": "2026-07-19T02:53:59.007202+00:00", "maneuver_count": 0, "owner": "DEN"}, "110": {"norad_id": "40056", "name": "CANX-5", "tle1": "1 40056U 14034D   26199.62793568  .00000363  00000-0  53855-4 0  9992", "tle2": "2 40056  98.3080  76.1348 0011373 270.7559  89.2349 14.81331659639996", "object_type": "PAYLOAD", "criticality_score": 9.0, "last_updated": "2026-07-19T02:53:59.007202+00:00", "maneuver_count": 0, "owner": "CA"}, "141": {"norad_id": "40071", "name": "DX 1", "tle1": "1 40071U 14037C   26199.85641049  .00001289  00000-0  13995-3 0  9991", "tle2": "2 40071  98.3889 163.4851 0007417 158.0944 202.0591 14.90069262650826", "object_type": "PAYLOAD", "criticality_score": 9.0, "last_updated": "2026-07-19T02:53:59.007202+00:00", "maneuver_count": 0, "owner": "CIS"}, "142": {"norad_id": "40069", "name": "METEOR M2", "tle1": "1 40069U 14037A   26199.89140348 -.00000028  00000-0  64423-5 0  9993", "tle2": "2 40069  98.5139 174.5106 0004917 314.4771  45.6005 14.21470054623827", "object_type": "PAYLOAD", "criticality_score": 9.0, "last_updated": "2026-07-19T02:53:59.007202+00:00", "maneuver_count": 0, "owner": "CIS"}, "152": {"norad_id": "40719", "name": "DEORBITSAIL", "tle1": "1 40719U 15032E   26199.55860191  .00004182  00000-0  30440-3 0  9993", "tle2": "2 40719  97.5853  55.7957 0013755 125.3687 234.8826 15.04249579595964", "object_type": "PAYLOAD", "criticality_score": 9.0, "last_updated": "2026-07-19T02:53:59.007202+00:00", "maneuver_count": 0, "owner": "UK"}, "185": {"norad_id": "40905", "name": "OBJECT G", "tle1": "1 40905U 15049G   26199.83535895  .00030404  00000-0  26459-3 0  9990", "tle2": "2 40905  97.4525 245.8703 0006594 106.6737 253.5248 15.68972435601405", "object_type": "PAYLOAD", "criticality_score": 9.0, "last_updated": "2026-07-19T02:53:59.007202+00:00", "maneuver_count": 0, "owner": "PRC"}, "227": {"norad_id": "40039", "name": "PERSEUS M1", "tle1": "1 40039U 14033AF  26199.81388235  .00000545  00000-0  54381-4 0  9991", "tle2": "2 40039  97.9655 144.4689 0011157 184.3661 175.7464 14.95722381655360", "object_type": "PAYLOAD", "criticality_score": 9.0, "last_updated": "2026-07-19T02:53:59.007202+00:00", "maneuver_count": 0, "owner": "CIS"}, "260": {"norad_id": "40376", "name": "SMAP", "tle1": "1 40376U 15003A   26199.80623068  .00000159  00000-0  39875-4 0  9990", "tle2": "2 40376  98.1285 206.4542 0001623  93.5805 266.5583 14.63390735612241", "object_type": "PAYLOAD", "criticality_score": 9.0, "last_updated": "2026-07-19T02:53:59.007202+00:00", "maneuver_count": 0, "owner": "US"}, "274": {"norad_id": "40119", "name": "BRITE-PL 2", "tle1": "1 40119U 14049B   26199.77113880  .00000608  00000-0  61509-4 0  9994", "tle2": "2 40119  97.9121 312.0206 0013984  10.5778 349.5733 14.94691557646161", "object_type": "PAYLOAD", "criticality_score": 9.0, "last_updated": "2026-07-19T02:53:59.007202+00:00", "maneuver_count": 0, "owner": "POL"}, "288": {"norad_id": "40715", "name": "DMC 3-FM1", "tle1": "1 40715U 15032A   26199.85858076  .00000796  00000-0  97487-4 0  9993", "tle2": "2 40715  97.6419  63.7852 0004540 324.7247  35.3668 14.85772095594612", "object_type": "PAYLOAD", "criticality_score": 9.0, "last_updated": "2026-07-19T02:53:59.007202+00:00", "maneuver_count": 0, "owner": "UK"}, "289": {"norad_id": "40716", "name": "DMC 3-FM2", "tle1": "1 40716U 15032B   26199.88050080 -.00000043  00000-0  98025-6 0  9993", "tle2": "2 40716  97.6471  65.4016 0005204 329.5166  30.5746 14.85776004594611", "object_type": "PAYLOAD", "criticality_score": 9.0, "last_updated": "2026-07-19T02:53:59.007202+00:00", "maneuver_count": 0, "owner": "UK"}, "290": {"norad_id": "40717", "name": "DMC 3-FM3", "tle1": "1 40717U 15032C   26199.90405872  .00000075  00000-0  14559-4 0  9992", "tle2": "2 40717  97.6521  67.1973 0004463 330.9408  29.1559 14.85763694594628", "object_type": "PAYLOAD", "criticality_score": 9.0, "last_updated": "2026-07-19T02:53:59.007202+00:00", "maneuver_count": 0, "owner": "UK"}, "295": {"norad_id": "40718", "name": "CARBONITE 1", "tle1": "1 40718U 15032D   26199.81355086  .00000719  00000-0  93118-4 0  9997", "tle2": "2 40718  97.6524  16.5593 0014164 184.7200 175.3884 14.83674251594030", "object_type": "PAYLOAD", "criticality_score": 9.0, "last_updated": "2026-07-19T02:53:59.007202+00:00", "maneuver_count": 0, "owner": "UK"}, "503": {"norad_id": "40336", "name": "CBERS-4", "tle1": "1 40336U 14079A   26199.89090905 -.00000026  00000-0  57444-5 0  9992", "tle2": "2 40336  98.3510 255.7250 0000643  59.6839 300.4411 14.35516449608507", "object_type": "PAYLOAD", "criticality_score": 9.0, "last_updated": "2026-07-19T02:53:59.007202+00:00", "maneuver_count": 0, "owner": "CHBZ"}, "601": {"norad_id": "40063", "name": "GONETS M 10 (M20)", "tle1": "1 40063U 14036C   26199.86530852 -.00000049  00000-0 -42417-3 0  9997", "tle2": "2 40063  82.5120 288.0003 0022892  74.8542 285.5067 12.42946109546182", "object_type": "PAYLOAD", "criticality_score": 9.0, "last_updated": "2026-07-19T02:53:59.007202+00:00", "maneuver_count": 0, "owner": "CIS"}, "602": {"norad_id": "40552", "name": "GONETS M 11 (M21)", "tle1": "1 40552U 15020A   26199.88538994  .00000044  00000-0  24898-3 0  9997", "tle2": "2 40552  82.4869  11.2350 0015312 294.6826  65.2659 12.42878726512677", "object_type": "PAYLOAD", "criticality_score": 9.0, "last_updated": "2026-07-19T02:53:59.007202+00:00", "maneuver_count": 0, "owner": "CIS"}, "603": {"norad_id": "40553", "name": "GONETS M 12 (M22)", "tle1": "1 40553U 15020B   26199.85854220 -.00000019  00000-0 -20498-3 0  9994", "tle2": "2 40553  82.4901  12.3838 0014215 278.4842  81.4626 12.42891972512668", "object_type": "PAYLOAD", "criticality_score": 9.0, "last_updated": "2026-07-19T02:53:59.007202+00:00", "maneuver_count": 0, "owner": "CIS"}, "604": {"norad_id": "40554", "name": "GONETS M 13 (M23)", "tle1": "1 40554U 15020C   26199.83255140  .00000003  00000-0 -49215-4 0  9990", "tle2": "2 40554  82.4865  11.0059 0012816 262.3066  97.6558 12.42871842512638", "object_type": "PAYLOAD", "criticality_score": 9.0, "last_updated": "2026-07-19T02:53:59.007202+00:00", "maneuver_count": 0, "owner": "CIS"}, "605": {"norad_id": "40920", "name": "COSMOS 2507", "tle1": "1 40920U 15050A   26199.86653134 -.00000051  00000-0 -43886-3 0  9999", "tle2": "2 40920  82.4899  59.9426 0008948 284.3149  75.6937 12.42927384490790", "object_type": "PAYLOAD", "criticality_score": 9.0, "last_updated": "2026-07-19T02:53:59.007202+00:00", "maneuver_count": 0, "owner": "CIS"}, "606": {"norad_id": "40921", "name": "COSMOS 2508", "tle1": "1 40921U 15050B   26199.90234324  .00000019  00000-0  67025-4 0  9995", "tle2": "2 40921  82.4850  58.4131 0013792 318.5215  41.4817 12.42915343490781", "object_type": "PAYLOAD", "criticality_score": 9.0, "last_updated": "2026-07-19T02:53:59.007202+00:00", "maneuver_count": 0, "owner": "CIS"}, "661": {"norad_id": "40118", "name": "GAOFEN 2", "tle1": "1 40118U 14049A   26199.86523280  .00000133  00000-0  24041-4 0  9995", "tle2": "2 40118  98.0090 264.0398 0008465 124.5253 235.6759 14.80928836643929", "object_type": "PAYLOAD", "criticality_score": 9.0, "last_updated": "2026-07-19T02:53:59.007202+00:00", "maneuver_count": 0, "owner": "PRC"}}}